{"fetched_at":"2026-07-23T07:05:43.411Z","source":"https://celestrak.org/NORAD/elements/gp.php?NAME=HAWK&FORMAT=JSON","constellation":"hawkeye-360","records":[{"OBJECT_NAME":"HAWK-A","OBJECT_ID":"2018-099H","EPOCH":"2026-07-22T03:04:32.782080","CLASSIFICATION_TYPE":"U","MEAN_MOTION":15.25028457,"ECCENTRICITY":0.00353713,"INCLINATION":97.3892,"RA_OF_ASC_NODE":254.9126,"ARG_OF_PERICENTER":159.8434,"MEAN_ANOMALY":200.421,"EPHEMERIS_TYPE":0,"NORAD_CAT_ID":43765,"ELEMENT_SET_NO":999,"REV_AT_EPOCH":41842,"BSTAR":0.00027590641,"MEAN_MOTION_DOT":0.00006941,"MEAN_MOTION_DDOT":0},{"OBJECT_NAME":"HAWK-B","OBJECT_ID":"2018-099AN","EPOCH":"2026-07-22T14:03:43.269408","CLASSIFICATION_TYPE":"U","MEAN_MOTION":15.23176256,"ECCENTRICITY":0.00321248,"INCLINATION":97.3944,"RA_OF_ASC_NODE":254.7049,"ARG_OF_PERICENTER":176.0437,"MEAN_ANOMALY":184.106,"EPHEMERIS_TYPE":0,"NORAD_CAT_ID":43794,"ELEMENT_SET_NO":999,"REV_AT_EPOCH":41842,"BSTAR":0.00026054739,"MEAN_MOTION_DOT":0.00006175,"MEAN_MOTION_DDOT":0},{"OBJECT_NAME":"HAWK-C","OBJECT_ID":"2018-099AT","EPOCH":"2026-07-22T21:01:08.131584","CLASSIFICATION_TYPE":"U","MEAN_MOTION":15.28583405,"ECCENTRICITY":0.00410172,"INCLINATION":97.3869,"RA_OF_ASC_NODE":256.7411,"ARG_OF_PERICENTER":156.9695,"MEAN_ANOMALY":203.3396,"EPHEMERIS_TYPE":0,"NORAD_CAT_ID":43799,"ELEMENT_SET_NO":999,"REV_AT_EPOCH":41936,"BSTAR":0.000346807,"MEAN_MOTION_DOT":0.00009814,"MEAN_MOTION_DDOT":0},{"OBJECT_NAME":"HAWK-2C","OBJECT_ID":"2021-006CT","EPOCH":"2026-07-22T13:16:08.807808","CLASSIFICATION_TYPE":"U","MEAN_MOTION":15.35053362,"ECCENTRICITY":0.00086081,"INCLINATION":97.2262,"RA_OF_ASC_NODE":247.1623,"ARG_OF_PERICENTER":80.0904,"MEAN_ANOMALY":280.1311,"EPHEMERIS_TYPE":0,"NORAD_CAT_ID":47502,"ELEMENT_SET_NO":999,"REV_AT_EPOCH":30492,"BSTAR":0.00018833661,"MEAN_MOTION_DOT":0.00006334,"MEAN_MOTION_DDOT":0},{"OBJECT_NAME":"HAWK-2A","OBJECT_ID":"2021-006CW","EPOCH":"2026-07-22T13:19:11.480736","CLASSIFICATION_TYPE":"U","MEAN_MOTION":15.35084245,"ECCENTRICITY":0.00081479,"INCLINATION":97.2304,"RA_OF_ASC_NODE":247.8633,"ARG_OF_PERICENTER":83.3724,"MEAN_ANOMALY":276.8447,"EPHEMERIS_TYPE":0,"NORAD_CAT_ID":47505,"ELEMENT_SET_NO":999,"REV_AT_EPOCH":30492,"BSTAR":0.00024092029,"MEAN_MOTION_DOT":0.00008132,"MEAN_MOTION_DDOT":0},{"OBJECT_NAME":"HAWK-2B","OBJECT_ID":"2021-006CZ","EPOCH":"2026-07-22T11:35:07.333728","CLASSIFICATION_TYPE":"U","MEAN_MOTION":15.35208398,"ECCENTRICITY":0.00087046,"INCLINATION":97.2177,"RA_OF_ASC_NODE":246.0686,"ARG_OF_PERICENTER":82.1778,"MEAN_ANOMALY":278.0454,"EPHEMERIS_TYPE":0,"NORAD_CAT_ID":47508,"ELEMENT_SET_NO":999,"REV_AT_EPOCH":30491,"BSTAR":0.0002206561,"MEAN_MOTION_DOT":0.00007472,"MEAN_MOTION_DDOT":0},{"OBJECT_NAME":"HAWK-3B","OBJECT_ID":"2021-059BE","EPOCH":"2026-07-22T19:14:55.760928","CLASSIFICATION_TYPE":"U","MEAN_MOTION":15.72400561,"ECCENTRICITY":0.00050817,"INCLINATION":97.664,"RA_OF_ASC_NODE":43.9567,"ARG_OF_PERICENTER":173.6847,"MEAN_ANOMALY":186.4481,"EPHEMERIS_TYPE":0,"NORAD_CAT_ID":48931,"ELEMENT_SET_NO":999,"REV_AT_EPOCH":28344,"BSTAR":0.00036400897,"MEAN_MOTION_DOT":0.00048373,"MEAN_MOTION_DDOT":0},{"OBJECT_NAME":"HAWK-3C","OBJECT_ID":"2021-059BX","EPOCH":"2026-07-22T13:07:54.676704","CLASSIFICATION_TYPE":"U","MEAN_MOTION":15.72369513,"ECCENTRICITY":0.00054144,"INCLINATION":97.6749,"RA_OF_ASC_NODE":49.4213,"ARG_OF_PERICENTER":172.9235,"MEAN_ANOMALY":187.2106,"EPHEMERIS_TYPE":0,"NORAD_CAT_ID":48948,"ELEMENT_SET_NO":999,"REV_AT_EPOCH":28340,"BSTAR":0.00036729808,"MEAN_MOTION_DOT":0.00048755,"MEAN_MOTION_DDOT":0},{"OBJECT_NAME":"HAWK-3A","OBJECT_ID":"2021-059CG","EPOCH":"2026-07-22T08:32:48.723072","CLASSIFICATION_TYPE":"U","MEAN_MOTION":15.7236325,"ECCENTRICITY":0.00052297,"INCLINATION":97.6699,"RA_OF_ASC_NODE":46.3886,"ARG_OF_PERICENTER":176.1431,"MEAN_ANOMALY":183.9873,"EPHEMERIS_TYPE":0,"NORAD_CAT_ID":48957,"ELEMENT_SET_NO":999,"REV_AT_EPOCH":28337,"BSTAR":0.00039627938,"MEAN_MOTION_DOT":0.00052619,"MEAN_MOTION_DDOT":0},{"OBJECT_NAME":"HAWK-5C","OBJECT_ID":"2022-057Y","EPOCH":"2026-07-22T16:46:39.973728","CLASSIFICATION_TYPE":"U","MEAN_MOTION":15.52520925,"ECCENTRICITY":0.00023451,"INCLINATION":97.6626,"RA_OF_ASC_NODE":5.6951,"ARG_OF_PERICENTER":308.1157,"MEAN_ANOMALY":51.9883,"EPHEMERIS_TYPE":0,"NORAD_CAT_ID":52754,"ELEMENT_SET_NO":999,"REV_AT_EPOCH":23185,"BSTAR":0.00031783957,"MEAN_MOTION_DOT":0.00019398,"MEAN_MOTION_DDOT":0},{"OBJECT_NAME":"HAWK-5B","OBJECT_ID":"2022-057AA","EPOCH":"2026-07-22T21:24:51.848064","CLASSIFICATION_TYPE":"U","MEAN_MOTION":15.52530461,"ECCENTRICITY":0.00030303,"INCLINATION":97.6637,"RA_OF_ASC_NODE":4.256,"ARG_OF_PERICENTER":293.6813,"MEAN_ANOMALY":66.4121,"EPHEMERIS_TYPE":0,"NORAD_CAT_ID":52756,"ELEMENT_SET_NO":999,"REV_AT_EPOCH":23188,"BSTAR":0.00035679289,"MEAN_MOTION_DOT":0.00021804,"MEAN_MOTION_DDOT":0},{"OBJECT_NAME":"HAWK-5A","OBJECT_ID":"2022-057AB","EPOCH":"2026-07-22T16:46:07.559040","CLASSIFICATION_TYPE":"U","MEAN_MOTION":15.52520606,"ECCENTRICITY":0.00029245,"INCLINATION":97.6635,"RA_OF_ASC_NODE":4.8796,"ARG_OF_PERICENTER":300.9143,"MEAN_ANOMALY":59.1822,"EPHEMERIS_TYPE":0,"NORAD_CAT_ID":52757,"ELEMENT_SET_NO":999,"REV_AT_EPOCH":23185,"BSTAR":0.00032107618,"MEAN_MOTION_DOT":0.00019598,"MEAN_MOTION_DDOT":0},{"OBJECT_NAME":"HAWK-6B","OBJECT_ID":"2023-011A","EPOCH":"2026-07-22T22:02:51.099072","CLASSIFICATION_TYPE":"U","MEAN_MOTION":15.23204189,"ECCENTRICITY":0.00046163,"INCLINATION":40.498,"RA_OF_ASC_NODE":143.6134,"ARG_OF_PERICENTER":278.6955,"MEAN_ANOMALY":81.3331,"EPHEMERIS_TYPE":0,"NORAD_CAT_ID":55324,"ELEMENT_SET_NO":999,"REV_AT_EPOCH":19329,"BSTAR":0.00020005098,"MEAN_MOTION_DOT":0.0000464,"MEAN_MOTION_DDOT":0},{"OBJECT_NAME":"HAWK-6C","OBJECT_ID":"2023-011C","EPOCH":"2026-07-22T22:01:56.469216","CLASSIFICATION_TYPE":"U","MEAN_MOTION":15.23203189,"ECCENTRICITY":0.00050513,"INCLINATION":40.4972,"RA_OF_ASC_NODE":140.4524,"ARG_OF_PERICENTER":274.3698,"MEAN_ANOMALY":85.6535,"EPHEMERIS_TYPE":0,"NORAD_CAT_ID":55326,"ELEMENT_SET_NO":999,"REV_AT_EPOCH":19330,"BSTAR":0.00018383753,"MEAN_MOTION_DOT":0.00004248,"MEAN_MOTION_DDOT":0},{"OBJECT_NAME":"HAWK-6A","OBJECT_ID":"2023-011D","EPOCH":"2026-07-22T22:01:59.621088","CLASSIFICATION_TYPE":"U","MEAN_MOTION":15.23203972,"ECCENTRICITY":0.00047941,"INCLINATION":40.4984,"RA_OF_ASC_NODE":142.08,"ARG_OF_PERICENTER":271.2225,"MEAN_ANOMALY":88.8035,"EPHEMERIS_TYPE":0,"NORAD_CAT_ID":55327,"ELEMENT_SET_NO":999,"REV_AT_EPOCH":19330,"BSTAR":0.00018648024,"MEAN_MOTION_DOT":0.00004311,"MEAN_MOTION_DDOT":0},{"OBJECT_NAME":"HAWK-7A","OBJECT_ID":"2023-054P","EPOCH":"2026-07-22T22:37:37.094016","CLASSIFICATION_TYPE":"U","MEAN_MOTION":15.27691083,"ECCENTRICITY":0.0000949,"INCLINATION":97.2652,"RA_OF_ASC_NODE":90.3706,"ARG_OF_PERICENTER":268.797,"MEAN_ANOMALY":91.3161,"EPHEMERIS_TYPE":0,"NORAD_CAT_ID":56191,"ELEMENT_SET_NO":999,"REV_AT_EPOCH":18248,"BSTAR":0.00021091971,"MEAN_MOTION_DOT":0.00005635,"MEAN_MOTION_DDOT":0}]}
