{"epoch":1784799577,"count":18318,"objects":[{"id":"43765","name":"HAWK-A","type":"PAYLOAD","l1":"1 43765U 18099H   26203.12815720  .00006941  00000-0  27591-3 0  9998","l2":"2 43765  97.3892 254.9126 0035371 159.8434 200.4210 15.25028457418424"},{"id":"43794","name":"HAWK-B","type":"PAYLOAD","l1":"1 43794U 18099AN  26203.58591747  .00006175  00000-0  26055-3 0  9993","l2":"2 43794  97.3944 254.7049 0032125 176.0437 184.1060 15.23176256418424"},{"id":"43799","name":"HAWK-C","type":"PAYLOAD","l1":"1 43799U 18099AT  26203.87578856  .00009814  00000-0  34681-3 0  9993","l2":"2 43799  97.3869 256.7411 0041017 156.9695 203.3396 15.28583405419366"},{"id":"47502","name":"HAWK-2C","type":"PAYLOAD","l1":"1 47502U 21006CT  26203.55287972  .00006334  00000-0  18834-3 0  9998","l2":"2 47502  97.2262 247.1623 0008608  80.0904 280.1311 15.35053362304923"},{"id":"47505","name":"HAWK-2A","type":"PAYLOAD","l1":"1 47505U 21006CW  26203.55499399  .00008132  00000-0  24092-3 0  9990","l2":"2 47505  97.2304 247.8633 0008148  83.3724 276.8447 15.35084245304922"},{"id":"47508","name":"HAWK-2B","type":"PAYLOAD","l1":"1 47508U 21006CZ  26203.48272377  .00007472  00000-0  22066-3 0  9995","l2":"2 47508  97.2177 246.0686 0008705  82.1778 278.0454 15.35208398304915"},{"id":"48931","name":"HAWK-3B","type":"PAYLOAD","l1":"1 48931U 21059BE  26203.80203427  .00048373  00000-0  36401-3 0  9993","l2":"2 48931  97.6640  43.9567 0005082 173.6847 186.4481 15.72400561283448"},{"id":"48948","name":"HAWK-3C","type":"PAYLOAD","l1":"1 48948U 21059BX  26203.54716061  .00048755  00000-0  36730-3 0  9994","l2":"2 48948  97.6749  49.4213 0005414 172.9235 187.2106 15.72369513283407"},{"id":"48957","name":"HAWK-3A","type":"PAYLOAD","l1":"1 48957U 21059CG  26203.35611948  .00052619  00000-0  39628-3 0  9994","l2":"2 48957  97.6699  46.3886 0005230 176.1431 183.9873 15.72363250283375"},{"id":"52754","name":"HAWK-5C","type":"PAYLOAD","l1":"1 52754U 22057Y   26203.69907377  .00019398  00000-0  31784-3 0  9996","l2":"2 52754  97.6626   5.6951 0002345 308.1157  51.9883 15.52520925231855"},{"id":"52756","name":"HAWK-5B","type":"PAYLOAD","l1":"1 52756U 22057AA  26203.89226676  .00021804  00000-0  35679-3 0  9998","l2":"2 52756  97.6637   4.2560 0003030 293.6813  66.4121 15.52530461231884"},{"id":"52757","name":"HAWK-5A","type":"PAYLOAD","l1":"1 52757U 22057AB  26203.69869860  .00019598  00000-0  32108-3 0  9996","l2":"2 52757  97.6635   4.8796 0002925 300.9143  59.1822 15.52520606231854"},{"id":"55324","name":"HAWK-6B","type":"PAYLOAD","l1":"1 55324U 23011A   26203.91864698  .00004640  00000-0  20005-3 0  9994","l2":"2 55324  40.4980 143.6134 0004616 278.6955  81.3331 15.23204189193295"},{"id":"55326","name":"HAWK-6C","type":"PAYLOAD","l1":"1 55326U 23011C   26203.91801469  .00004248  00000-0  18384-3 0  9994","l2":"2 55326  40.4972 140.4524 0005051 274.3698  85.6535 15.23203189193301"},{"id":"55327","name":"HAWK-6A","type":"PAYLOAD","l1":"1 55327U 23011D   26203.91805117  .00004311  00000-0  18648-3 0  9993","l2":"2 55327  40.4984 142.0800 0004794 271.2225  88.8035 15.23203972193305"},{"id":"56191","name":"HAWK-7A","type":"PAYLOAD","l1":"1 56191U 23054P   26203.94279044  .00005635  00000-0  21092-3 0  9994","l2":"2 56191  97.2652  90.3706 0000949 268.7970  91.3161 15.27691083182487"}]}